ATLAS CENTAUR R/B       
1 06155U 72065B   26025.85448736  .00002117  00000+0  29226-3 0  9991
2 06155  34.9997 196.7576 0033734   8.4330 351.6932 14.77549773834928
SL-8 R/B                
1 08459U 75112B   26025.65418942  .00000436  00000+0  15196-3 0  9993
2 08459  74.0608  98.0837 0016026 204.4321 155.6076 14.38180288625689
SL-3 R/B                
1 10114U 77057B   26025.90392567  .00017084  00000+0  37346-3 0  9994
2 10114  97.5717 195.9994 0008560  79.3439 280.8773 15.44203644661725
SEASAT 1                
1 10967U 78064A   26025.47045252  .00000673  00000+0  22667-3 0  9993
2 10967 108.0171  34.7966 0001268 286.3428  73.7578 14.46118972500261
SL-14 R/B               
1 11267U 79011B   26025.72192771  .00001225  00000+0  11864-3 0  9998
2 11267  82.5262 137.3334 0015612 195.9376 164.1355 14.91846205522377
SL-8 R/B                
1 11574U 79089B   26025.81165576  .00000603  00000+0  19018-3 0  9995
2 11574  74.0687 170.4087 0015971 349.5192  10.5629 14.42320328429923
SL-14 R/B               
1 11672U 80005B   26025.84098006  .00001233  00000+0  12249-3 0  9999
2 11672  82.5163 347.8683 0014519 310.6913  49.3043 14.90864271470103
SL-8 R/B                
1 12139U 81003B   26025.79822474  .00032059  00000+0  85140-3 0  9995
2 12139  82.9392 329.6353 0267407 328.6237  29.9266 15.09150410308202
SL-3 R/B                
1 12465U 81046B   26025.87396856  .00017343  00000+0  42020-3 0  9992
2 12465  81.2340 341.0961 0019658 162.7659 197.4255 15.40748730431838
SL-3 R/B                
1 12904U 81103B   26025.94823956  .00008471  00000+0  38161-3 0  9991
2 12904  81.1573 263.5605 0014433  70.0049 290.2735 15.20839879966736
SL-3 R/B                
1 13068U 82013B   26025.90911161  .00006950  00000+0  30551-3 0  9991
2 13068  81.1731 210.8903 0022242 326.0317  33.9489 15.21529219397842
SL-3 R/B                
1 13154U 82039B   26025.91439558  .00004223  00000+0  25700-3 0  9992
2 13154  81.1648 265.2569 0030048 104.4347 256.0216 15.09832199375180
