CCSDS_OMM_VERS = 2.0
CREATION_DATE  = 
ORIGINATOR     = 

OBJECT_NAME    = ATLAS CENTAUR R/B
OBJECT_ID      = 1972-065B
CENTER_NAME    = EARTH
REF_FRAME      = TEME
TIME_SYSTEM    = UTC
MEAN_ELEMENT_THEORY = SGP/SGP4

EPOCH          = 2026-01-25T20:30:27.707904
MEAN_MOTION    = 14.77549773
ECCENTRICITY   = .00337341
INCLINATION    = 34.9997
RA_OF_ASC_NODE = 196.7576
ARG_OF_PERICENTER = 8.4330
MEAN_ANOMALY   = 351.6932

EPHEMERIS_TYPE = 0
CLASSIFICATION_TYPE = U
NORAD_CAT_ID   = 6155
ELEMENT_SET_NO = 999
REV_AT_EPOCH   = 83492
BSTAR          = .29226397E-3
MEAN_MOTION_DOT = .2117E-4
MEAN_MOTION_DDOT = 0

CCSDS_OMM_VERS = 2.0
CREATION_DATE  = 
ORIGINATOR     = 

OBJECT_NAME    = SL-8 R/B
OBJECT_ID      = 1975-112B
CENTER_NAME    = EARTH
REF_FRAME      = TEME
TIME_SYSTEM    = UTC
MEAN_ELEMENT_THEORY = SGP/SGP4

EPOCH          = 2026-01-25T15:42:01.965888
MEAN_MOTION    = 14.38180288
ECCENTRICITY   = .00160262
INCLINATION    = 74.0608
RA_OF_ASC_NODE = 98.0837
ARG_OF_PERICENTER = 204.4321
MEAN_ANOMALY   = 155.6076

EPHEMERIS_TYPE = 0
CLASSIFICATION_TYPE = U
NORAD_CAT_ID   = 8459
ELEMENT_SET_NO = 999
REV_AT_EPOCH   = 62568
BSTAR          = .15196109E-3
MEAN_MOTION_DOT = .436E-5
MEAN_MOTION_DDOT = 0

CCSDS_OMM_VERS = 2.0
CREATION_DATE  = 
ORIGINATOR     = 

OBJECT_NAME    = SL-3 R/B
OBJECT_ID      = 1977-057B
CENTER_NAME    = EARTH
REF_FRAME      = TEME
TIME_SYSTEM    = UTC
MEAN_ELEMENT_THEORY = SGP/SGP4

EPOCH          = 2026-01-25T21:41:39.177888
MEAN_MOTION    = 15.44203644
ECCENTRICITY   = .00085605
INCLINATION    = 97.5717
RA_OF_ASC_NODE = 195.9994
ARG_OF_PERICENTER = 79.3439
MEAN_ANOMALY   = 280.8773

EPHEMERIS_TYPE = 0
CLASSIFICATION_TYPE = U
NORAD_CAT_ID   = 10114
ELEMENT_SET_NO = 999
REV_AT_EPOCH   = 66172
BSTAR          = .3734628E-3
MEAN_MOTION_DOT = .17084E-3
MEAN_MOTION_DDOT = 0

CCSDS_OMM_VERS = 2.0
CREATION_DATE  = 
ORIGINATOR     = 

OBJECT_NAME    = SEASAT 1
OBJECT_ID      = 1978-064A
CENTER_NAME    = EARTH
REF_FRAME      = TEME
TIME_SYSTEM    = UTC
MEAN_ELEMENT_THEORY = SGP/SGP4

EPOCH          = 2026-01-25T11:17:27.097728
MEAN_MOTION    = 14.46118972
ECCENTRICITY   = .0001268
INCLINATION    = 108.0171
RA_OF_ASC_NODE = 34.7966
ARG_OF_PERICENTER = 286.3428
MEAN_ANOMALY   = 73.7578

EPHEMERIS_TYPE = 0
CLASSIFICATION_TYPE = U
NORAD_CAT_ID   = 10967
ELEMENT_SET_NO = 999
REV_AT_EPOCH   = 50026
BSTAR          = .22667366E-3
MEAN_MOTION_DOT = .673E-5
MEAN_MOTION_DDOT = 0

CCSDS_OMM_VERS = 2.0
CREATION_DATE  = 
ORIGINATOR     = 

OBJECT_NAME    = SL-14 R/B
OBJECT_ID      = 1979-011B
CENTER_NAME    = EARTH
REF_FRAME      = TEME
TIME_SYSTEM    = UTC
MEAN_ELEMENT_THEORY = SGP/SGP4

EPOCH          = 2026-01-25T17:19:34.554144
MEAN_MOTION    = 14.91846205
ECCENTRICITY   = .00156128
INCLINATION    = 82.5262
RA_OF_ASC_NODE = 137.3334
ARG_OF_PERICENTER = 195.9376
MEAN_ANOMALY   = 164.1355

EPHEMERIS_TYPE = 0
CLASSIFICATION_TYPE = U
NORAD_CAT_ID   = 11267
ELEMENT_SET_NO = 999
REV_AT_EPOCH   = 52237
BSTAR          = .11863719E-3
MEAN_MOTION_DOT = .1225E-4
MEAN_MOTION_DDOT = 0

CCSDS_OMM_VERS = 2.0
CREATION_DATE  = 
ORIGINATOR     = 

OBJECT_NAME    = SL-8 R/B
OBJECT_ID      = 1979-089B
CENTER_NAME    = EARTH
REF_FRAME      = TEME
TIME_SYSTEM    = UTC
MEAN_ELEMENT_THEORY = SGP/SGP4

EPOCH          = 2026-01-25T19:28:47.057664
MEAN_MOTION    = 14.42320328
ECCENTRICITY   = .00159719
INCLINATION    = 74.0687
RA_OF_ASC_NODE = 170.4087
ARG_OF_PERICENTER = 349.5192
MEAN_ANOMALY   = 10.5629

EPHEMERIS_TYPE = 0
CLASSIFICATION_TYPE = U
NORAD_CAT_ID   = 11574
ELEMENT_SET_NO = 999
REV_AT_EPOCH   = 42992
BSTAR          = .19018418E-3
MEAN_MOTION_DOT = .603E-5
MEAN_MOTION_DDOT = 0

CCSDS_OMM_VERS = 2.0
CREATION_DATE  = 
ORIGINATOR     = 

OBJECT_NAME    = SL-14 R/B
OBJECT_ID      = 1980-005B
CENTER_NAME    = EARTH
REF_FRAME      = TEME
TIME_SYSTEM    = UTC
MEAN_ELEMENT_THEORY = SGP/SGP4

EPOCH          = 2026-01-25T20:11:00.677184
MEAN_MOTION    = 14.90864271
ECCENTRICITY   = .00145194
INCLINATION    = 82.5163
RA_OF_ASC_NODE = 347.8683
ARG_OF_PERICENTER = 310.6913
MEAN_ANOMALY   = 49.3043

EPHEMERIS_TYPE = 0
CLASSIFICATION_TYPE = U
NORAD_CAT_ID   = 11672
ELEMENT_SET_NO = 999
REV_AT_EPOCH   = 47010
BSTAR          = .12248898E-3
MEAN_MOTION_DOT = .1233E-4
MEAN_MOTION_DDOT = 0

CCSDS_OMM_VERS = 2.0
CREATION_DATE  = 
ORIGINATOR     = 

OBJECT_NAME    = SL-8 R/B
OBJECT_ID      = 1981-003B
CENTER_NAME    = EARTH
REF_FRAME      = TEME
TIME_SYSTEM    = UTC
MEAN_ELEMENT_THEORY = SGP/SGP4

EPOCH          = 2026-01-25T19:09:26.617536
MEAN_MOTION    = 15.09150410
ECCENTRICITY   = .0267407
INCLINATION    = 82.9392
RA_OF_ASC_NODE = 329.6353
ARG_OF_PERICENTER = 328.6237
MEAN_ANOMALY   = 29.9266

EPHEMERIS_TYPE = 0
CLASSIFICATION_TYPE = U
NORAD_CAT_ID   = 12139
ELEMENT_SET_NO = 999
REV_AT_EPOCH   = 30820
BSTAR          = .85140284E-3
MEAN_MOTION_DOT = .32059E-3
MEAN_MOTION_DDOT = 0

CCSDS_OMM_VERS = 2.0
CREATION_DATE  = 
ORIGINATOR     = 

OBJECT_NAME    = SL-3 R/B
OBJECT_ID      = 1981-046B
CENTER_NAME    = EARTH
REF_FRAME      = TEME
TIME_SYSTEM    = UTC
MEAN_ELEMENT_THEORY = SGP/SGP4

EPOCH          = 2026-01-25T20:58:30.883584
MEAN_MOTION    = 15.40748730
ECCENTRICITY   = .00196583
INCLINATION    = 81.2340
RA_OF_ASC_NODE = 341.0961
ARG_OF_PERICENTER = 162.7659
MEAN_ANOMALY   = 197.4255

EPHEMERIS_TYPE = 0
CLASSIFICATION_TYPE = U
NORAD_CAT_ID   = 12465
ELEMENT_SET_NO = 999
REV_AT_EPOCH   = 43183
BSTAR          = .42019505E-3
MEAN_MOTION_DOT = .17343E-3
MEAN_MOTION_DDOT = 0

CCSDS_OMM_VERS = 2.0
CREATION_DATE  = 
ORIGINATOR     = 

OBJECT_NAME    = SL-3 R/B
OBJECT_ID      = 1981-103B
CENTER_NAME    = EARTH
REF_FRAME      = TEME
TIME_SYSTEM    = UTC
MEAN_ELEMENT_THEORY = SGP/SGP4

EPOCH          = 2026-01-25T22:45:27.897984
MEAN_MOTION    = 15.20839879
ECCENTRICITY   = .00144339
INCLINATION    = 81.1573
RA_OF_ASC_NODE = 263.5605
ARG_OF_PERICENTER = 70.0049
MEAN_ANOMALY   = 290.2735

EPHEMERIS_TYPE = 0
CLASSIFICATION_TYPE = U
NORAD_CAT_ID   = 12904
ELEMENT_SET_NO = 999
REV_AT_EPOCH   = 96673
BSTAR          = .38160926E-3
MEAN_MOTION_DOT = .8471E-4
MEAN_MOTION_DDOT = 0

CCSDS_OMM_VERS = 2.0
CREATION_DATE  = 
ORIGINATOR     = 

OBJECT_NAME    = SL-3 R/B
OBJECT_ID      = 1982-013B
CENTER_NAME    = EARTH
REF_FRAME      = TEME
TIME_SYSTEM    = UTC
MEAN_ELEMENT_THEORY = SGP/SGP4

EPOCH          = 2026-01-25T21:49:07.243104
MEAN_MOTION    = 15.21529219
ECCENTRICITY   = .00222426
INCLINATION    = 81.1731
RA_OF_ASC_NODE = 210.8903
ARG_OF_PERICENTER = 326.0317
MEAN_ANOMALY   = 33.9489

EPHEMERIS_TYPE = 0
CLASSIFICATION_TYPE = U
NORAD_CAT_ID   = 13068
ELEMENT_SET_NO = 999
REV_AT_EPOCH   = 39784
BSTAR          = .30550671E-3
MEAN_MOTION_DOT = .695E-4
MEAN_MOTION_DDOT = 0

CCSDS_OMM_VERS = 2.0
CREATION_DATE  = 
ORIGINATOR     = 

OBJECT_NAME    = SL-3 R/B
OBJECT_ID      = 1982-039B
CENTER_NAME    = EARTH
REF_FRAME      = TEME
TIME_SYSTEM    = UTC
MEAN_ELEMENT_THEORY = SGP/SGP4

EPOCH          = 2026-01-25T21:56:43.778112
MEAN_MOTION    = 15.09832199
ECCENTRICITY   = .00300486
INCLINATION    = 81.1648
RA_OF_ASC_NODE = 265.2569
ARG_OF_PERICENTER = 104.4347
MEAN_ANOMALY   = 256.0216

EPHEMERIS_TYPE = 0
CLASSIFICATION_TYPE = U
NORAD_CAT_ID   = 13154
ELEMENT_SET_NO = 999
REV_AT_EPOCH   = 37518
BSTAR          = .2570018E-3
MEAN_MOTION_DOT = .4223E-4
MEAN_MOTION_DDOT = 0

